{
    "links": {
        "self": "http://www.neowsapp.com/rest/v1/neo/3787085?api_key=iIulBulltgU6a56xZRHN4H3l9WmuAYTsLGpBGhQ2"
    },
    "id": "3787085",
    "neo_reference_id": "3787085",
    "name": "(2017 UE1)",
    "designation": "2017 UE1",
    "nasa_jpl_url": "http://ssd.jpl.nasa.gov/sbdb.cgi?sstr=3787085",
    "absolute_magnitude_h": 26.2,
    "estimated_diameter": {
        "kilometers": {
            "estimated_diameter_min": 0.0152951935,
            "estimated_diameter_max": 0.0342010925
        },
        "meters": {
            "estimated_diameter_min": 15.2951935344,
            "estimated_diameter_max": 34.201092472
        },
        "miles": {
            "estimated_diameter_min": 0.0095039897,
            "estimated_diameter_max": 0.021251567
        },
        "feet": {
            "estimated_diameter_min": 50.1810827555,
            "estimated_diameter_max": 112.2083122258
        }
    },
    "is_potentially_hazardous_asteroid": false,
    "close_approach_data": [
        {
            "close_approach_date": "2017-10-05",
            "close_approach_date_full": "2017-Oct-05 20:14",
            "epoch_date_close_approach": 1507234440000,
            "relative_velocity": {
                "kilometers_per_second": "10.8425750904",
                "kilometers_per_hour": "39033.2703254818",
                "miles_per_hour": "24253.7562197417"
            },
            "miss_distance": {
                "astronomical": "0.0247752822",
                "lunar": "9.6375847758",
                "kilometers": "3706329.445768914",
                "miles": "2303006.3257784532"
            },
            "orbiting_body": "Earth"
        }
    ],
    "orbital_data": {
        "orbit_id": "1",
        "orbit_determination_date": "2017-10-19 09:42:05",
        "first_observation_date": "2017-10-16",
        "last_observation_date": "2017-10-18",
        "data_arc_in_days": 2,
        "observations_used": 18,
        "orbit_uncertainty": "9",
        "minimum_orbit_intersection": ".0210238",
        "jupiter_tisserand_invariant": "4.033",
        "epoch_osculation": "2458043.5",
        "eccentricity": ".4616786126859026",
        "semi_major_axis": "1.722369968837272",
        "inclination": "7.653122997841712",
        "ascending_node_longitude": "198.9153626068252",
        "orbital_period": "825.6349972760615",
        "perihelion_distance": ".927188591092619",
        "perihelion_argument": "129.7662916856789",
        "aphelion_distance": "2.517551346581925",
        "perihelion_time": "2457998.022208539887",
        "mean_anomaly": "19.82959174411848",
        "mean_motion": ".4360280283511643",
        "equinox": "J2000",
        "orbit_class": {
            "orbit_class_type": "APO",
            "orbit_class_description": "Near-Earth asteroid orbits which cross the Earth’s orbit similar to that of 1862 Apollo",
            "orbit_class_range": "a (semi-major axis) > 1.0 AU; q (perihelion) < 1.017 AU"
        }
    },
    "is_sentry_object": false
}